41917,IRIDIUM 106,2017,100.4,860.0,+,86.39,Active,1,LEO,USA,USA,Commercial/Government,Communications,Falcon,1 41917U 17003A   24083.50150724  .00000144  00000+0  44271-4 0  9994,2 41917  86.3926  69.3996 0002541  84.7030 275.4456 14.34218770376291,14.3421877,0.0002541,LEO
41918,IRIDIUM 103,2017,100.4,860.0,+,86.39,Active,1,LEO,USA,USA,Commercial/Government,Communications,Falcon,1 41918U 17003B   24083.90743232  .00000046  00000+0  94078-5 0  9993,2 41918  86.3926  69.1319 0002264  97.7580 262.3873 14.34218175376382,14.34218175,0.0002264,LEO
41919,IRIDIUM 109,2017,100.4,860.0,+,86.39,Active,1,LEO,USA,USA,Commercial/Government,Communications,Falcon,1 41919U 17003C   24082.93701711  .00000138  00000+0  42075-4 0  9993,2 41919  86.3926  69.5842 0002050  93.5792 266.5638 14.34218860376207,14.3421886,0.000205,LEO
41920,IRIDIUM 102,2017,100.4,860.0,+,86.39,Active,1,LEO,USA,USA,Commercial/Government,Communications,Falcon,1 41920U 17003D   24083.46344990  .00000196  00000+0  62778-4 0  9992,2 41920  86.3925  69.3046 0002074  89.1530 270.9903 14.34219280376367,14.3421928,0.0002074,LEO
41921,IRIDIUM 105,2017,100.4,860.0,+,86.4,Active,1,LEO,USA,USA,Commercial/Government,Communications,Falcon,1 41921U 17003E   24083.85272705  .00000757  00000+0  26321-3 0  9996,2 41921  86.3996  37.5558 0002258  87.0196 273.1258 14.34234189378275,14.34234189,0.0002258,LEO
41922,IRIDIUM 104,2017,100.4,860.0,+,86.39,Active,1,LEO,USA,USA,Commercial/Government,Communications,Falcon,1 41922U 17003F   24083.47613860  .00000768  00000+0  26721-3 0  9992,2 41922  86.3929  69.3296 0002136  89.7221 270.4220 14.34211140376355,14.3421114,0.0002136,LEO
41923,IRIDIUM 114,2017,100.4,860.0,+,86.39,Active,1,LEO,USA,USA,Commercial/Government,Communications,Falcon,1 41923U 17003G   24082.92433322  .00000251  00000+0  82458-4 0  9992,2 41923  86.3926  69.5466 0002445  84.2867 275.8608 14.34218937376252,14.34218937,0.0002445,LEO
41924,IRIDIUM 108,2017,100.4,860.0,+,86.4,Active,1,LEO,USA,USA,Commercial/Government,Communications,Falcon,1 41924U 17003H   24083.85960885  .00000871  00000+0  30398-3 0  9998,2 41924  86.3992  37.4828 0002433  82.4542 277.6930 14.34218897378265,14.34218897,0.0002433,LEO
